#aV2016  5 21  0  0  0.00000000     288 DD+AD WGS84 FIT  NGA
## 1897 518400.00000000   300.00000000 57529 0.0000000000000
+   31     1  2  3  5  6  7  8  9 10 11 12 13 14 15 16 17 18
+         19 20 21 22 23 24 25 26 27 28 29 30 31 32  0  0  0
+          0  0  0  0  0  0  0  0  0  0  0  0  0  0  0  0  0
+          0  0  0  0  0  0  0  0  0  0  0  0  0  0  0  0  0
+          0  0  0  0  0  0  0  0  0  0  0  0  0  0  0  0  0
++         2  2  2  2  2  2  2  2  2  2  2  2  2  2  2  2  2
++         2  2  2  2  2  2  2  2  2  2  2  2  2  2  0  0  0
++         0  0  0  0  0  0  0  0  0  0  0  0  0  0  0  0  0
++         0  0  0  0  0  0  0  0  0  0  0  0  0  0  0  0  0
++         0  0  0  0  0  0  0  0  0  0  0  0  0  0  0  0  0
%c cc cc ccc ccc cccc cccc cccc cccc ccccc ccccc ccccc ccccc
%c cc cc ccc ccc cccc cccc cccc cccc ccccc ccccc ccccc ccccc
%f  0.0000000  0.000000000  0.00000000000  0.000000000000000
%f  0.0000000  0.000000000  0.00000000000  0.000000000000000
%i    0    0    0    0      0      0      0      0         0
%i    0    0    0    0      0      0      0      0         0
/*      NGA, ST. LOUIS,MO.                                  
/*   EPHEMERIS COMPUTED FROM 2 DAYS OF DATA                 
/*   EPOCHA v2.4 SMOOTHER                                   
/*   G1762 IERS2010 SATAF SATAPC                            
*  2016  5 21  3 35  0.00000000
P  1  13740.992425  13620.539218 -18376.792619     21.040151                    
V  1 -23119.610791    -90.867412 -17197.252544      0.012140                    
P  2   8774.752789 -14801.356476  20579.513926    590.608866                    
V  2  25293.650791   1604.419844 -10235.975042     -0.022899                    
P  3  13644.322749  22610.184444   2829.541152    -59.723186                    
V  3   -935.393380   4489.624175 -31447.029468     -0.036919                    
P  5     48.326683 -22247.756209  14293.521056   -119.210969                    
V  5  10793.882605  15102.021206  23558.361577      0.030313                    
P  6  22884.173353  -6868.172269  11619.223606    193.200658                    
V  6  14584.739969   3073.333730 -26935.914404      0.054860                    
P  7  25357.977269   6210.904400   6081.008431    453.385734                    
V  7  -7603.896710   1593.007864  30375.198031     -0.022321                    
P  8  -2588.594318  22245.228390 -14199.782700    -35.902739                    
V  8 -11590.521049  14096.800653  24145.794384     -0.014597                    
P  9  14719.365829   5176.430861  21479.756902    133.064323                    
V  9 -14446.701847  23199.911600   4288.728987      0.073252                    
P 10 -15590.218289   2397.836826 -21357.405110    -27.194436                    
V 10 -11892.401637 -24425.607898   5868.345130     -0.088762                    
P 11   8120.735491  14959.218371 -20950.268078   -647.650038                    
V 11 -24232.661470   8425.299079  -3432.302383     -0.013993                    
P 12 -10542.489171 -24508.501264   -380.647199    380.330758                    
V 12   1679.436520   -394.158926 -32241.939106      0.011904                    
P 13  11034.005283 -22634.000620  -8717.955133    -19.251793                    
V 13   8593.905795  -6972.456301  29325.290009     -0.026062                    
P 14 -19771.829721  14295.758837 -10049.459494    -14.966900                    
V 14   5982.989058 -12025.256115 -28314.547346     -0.020871                    
P 15  -1733.283637 -21025.456044 -16049.483416   -311.791151                    
V 15  12417.082127 -16380.305301  20623.040009     -0.016770                    
P 16  -1779.856654  21467.425931  15166.040008    -16.205742                    
V 16  -9064.822073 -17392.750414  23770.112394      0.025799                    
P 17  19463.115490 -10859.245369 -13975.081593   -203.787714                    
V 17  -9105.437121  16058.038150 -24762.844346     -0.001006                    
P 18 -18789.709234 -10509.214725 -15173.953276    517.829170                    
V 18  -7321.284344 -19071.362639  21254.950908      0.040446                    
P 19  19182.363998 -17842.566717  -5694.414280   -525.672650                    
V 19  -2712.379344   6582.972636 -30719.369501      0.000278                    
P 20 -13076.498944 -23047.031769   1276.157830    413.494045                    
V 20   4314.048680   -537.017455  30933.735158      0.023464                    
P 21 -26237.630233  -3671.612360   3991.806394   -523.338423                    
V 21   4232.224948  -3145.470293  30508.048609     -0.012550                    
P 22   8239.548574  24420.113417  -5904.556791    337.956559                    
V 22  -7287.207610  -4989.222918 -29727.820160     -0.082323                    
P 23   8173.580786  14707.383097  20644.815162   -174.676148                    
V 23 -15120.250196  21109.120695  -9577.969293     -0.016482                    
P 24 -10283.455936 -14526.945920 -19830.284929    -17.378964                    
V 24  25059.243272   -373.820693 -12565.204471     -0.006200                    
P 25 -16824.059905 -17759.168811  10460.135707   -175.236230                    
V 25  -4341.618569 -12791.666252 -28171.212167     -0.070465                    
P 26  -8932.784279  14150.062129  20609.561493   -370.782943                    
V 26 -12816.851792 -22865.203528  10187.693601     -0.121826                    
P 27 -11266.497120  23465.705112  -4830.609343     94.710801                    
V 27  -5468.134709   3745.016314  31316.064021      0.040784                    
P 28  15255.778102    584.082378 -21116.210252    524.472460                    
V 28  10280.799124  26283.141288   7880.677065      0.026471                    
P 29 -11911.600500  -8866.125818  22028.697535    657.137745                    
V 29  16522.054482 -22482.674110    -70.613168     -0.000612                    
P 30  26303.836856    349.665997  -4041.803827    126.896032                    
V 30   4711.722051   3562.099927  30943.765134      0.030404                    
P 31 -21250.234759   7894.069147  14235.575817    267.967398                    
V 31 -17526.650599  -3176.719859 -24222.129412     -0.018972                    
P 32 -19168.137701  13146.018073 -12833.113475     -9.411781                    
V 32   6906.307137 -14961.330965 -25635.959564     -0.062673                    
EOF
